HAWK-11B                
1 62379U 24247C   26068.44730104  .00009093  00000+0  32842-3 0  9993
2 62379  45.0161 115.7610 0004690 333.0326  27.0314 15.28847070 67738
STARLINK-32763          
1 62750U 25014R   26067.60053711  .00037707  00000+0  13710-2 0  9993
2 62750  42.9992 160.2923 0001399 268.2367  91.8325 15.27621488 63096
